<?xml version="1.0" encoding="utf-8" ?>
<kml xmlns="http://www.opengis.net/kml/2.2">
<Document id="root_doc">
<Schema name="c204_aridashi" id="c204_aridashi">
	<SimpleField name="市町村" type="string"></SimpleField>
	<SimpleField name="大字" type="string"></SimpleField>
	<SimpleField name="字" type="string"></SimpleField>
	<SimpleField name="q_kyouyuushakanrenjouhou_tkigo" type="string"></SimpleField>
	<SimpleField name="地番" type="string"></SimpleField>
	<SimpleField name="地目" type="string"></SimpleField>
	<SimpleField name="面積" type="string"></SimpleField>
	<SimpleField name="乙区分" type="string"></SimpleField>
	<SimpleField name="共有者数" type="string"></SimpleField>
	<SimpleField name="登記年月日" type="string"></SimpleField>
	<SimpleField name="q_kyouyuushakanrenjouhou_keyno" type="string"></SimpleField>
	<SimpleField name="持ち分" type="string"></SimpleField>
</Schema>
<Folder><name>c204_aridashi</name>
  <Placemark>
	<Style><LineStyle><color>ff0000ff</color></LineStyle><PolyStyle><fill>0</fill></PolyStyle></Style>
	<ExtendedData><SchemaData schemaUrl="#c204_aridashi">
		<SimpleData name="市町村"></SimpleData>
		<SimpleData name="大字"></SimpleData>
		<SimpleData name="字"></SimpleData>
		<SimpleData name="q_kyouyuushakanrenjouhou_tkigo"></SimpleData>
		<SimpleData name="地番"></SimpleData>
		<SimpleData name="地目"></SimpleData>
		<SimpleData name="面積"></SimpleData>
		<SimpleData name="乙区分"></SimpleData>
		<SimpleData name="共有者数"></SimpleData>
		<SimpleData name="登記年月日"></SimpleData>
		<SimpleData name="q_kyouyuushakanrenjouhou_keyno"></SimpleData>
		<SimpleData name="持ち分"></SimpleData>
	</SchemaData></ExtendedData>
      <MultiGeometry><Polygon><outerBoundaryIs><LinearRing><coordinates>135.132607985122,34.0886446576238 135.132614614547,34.0886448847414 135.132621243972,34.0886451118586 135.132682879627,34.0885601593191 135.132684941949,34.0885364445632 135.132698504055,34.0885315997005 135.132712478919,34.0885340965274 135.132799490929,34.0885258302659 135.132871704325,34.0885118968117 135.132922985608,34.0884753124091 135.132934569462,34.0884646835124 135.13293554205,34.0884575048654 135.13293707345,34.088444406849 135.132869284965,34.0883251285804 135.132847018021,34.0882899274051 135.132837575203,34.0882712433416 135.132816081616,34.0882207750273 135.132810745361,34.0881808699474 135.132967958562,34.0880243490447 135.132998005053,34.0879533280489 135.133008763699,34.0878865165045 135.13300762515,34.0878663944472 135.132999501463,34.0878405522234 135.132978609033,34.0878140248556 135.132974845468,34.0877665306444 135.132979852529,34.087738815659 135.132982898198,34.0877238620768 135.132997949715,34.0876558096113 135.132973858672,34.0876560543268 135.132920330705,34.0876717876249 135.132798659483,34.0876944959207 135.132813134744,34.0876192088212 135.132810214879,34.0875878135813 135.132813479153,34.0875779914785 135.132781525439,34.0876001338855 135.132779596393,34.0876086581357 135.13277393,34.0876425802754 135.132778607196,34.0876982311329 135.132771934028,34.0877076144505 135.132798842489,34.0877031162201 135.132924076507,34.0876806314135 135.132975609226,34.0876650373004 135.132985514782,34.0876648998418 135.132962378277,34.08772457376 135.132957686366,34.0877405074508 135.132960016783,34.0877606379199 135.132958386016,34.0878185612893 135.132972212744,34.0878217602652 135.132989476203,34.0878449893264 135.132995665707,34.0878692311389 135.132993717819,34.0878923606905 135.132987054872,34.0879528270377 135.132954474038,34.0880205304001 135.132790586562,34.0881737855713 135.132803477662,34.0882262397342 135.132830944728,34.0882774985154 135.132837314841,34.0882925275659 135.132864029464,34.0883325655009 135.132926958602,34.0884469950957 135.132925574586,34.0884594540376 135.132916175924,34.0884672584108 135.132867706523,34.0885033217148 135.132796487232,34.0885175326544 135.132710284022,34.0885261832826 135.132686835146,34.0885261259392 135.132670584143,34.0885364333622 135.132671914543,34.0885557994557 135.132607985122,34.0886446576238</coordinates></LinearRing></outerBoundaryIs></Polygon></MultiGeometry>
  </Placemark>
  <Placemark>
	<Style><LineStyle><color>ff0000ff</color></LineStyle><PolyStyle><fill>0</fill></PolyStyle></Style>
	<ExtendedData><SchemaData schemaUrl="#c204_aridashi">
		<SimpleData name="市町村">有田市</SimpleData>
		<SimpleData name="大字">新堂</SimpleData>
		<SimpleData name="字">字瀧形谷</SimpleData>
		<SimpleData name="q_kyouyuushakanrenjouhou_tkigo"></SimpleData>
		<SimpleData name="地番">904</SimpleData>
		<SimpleData name="地目">畑</SimpleData>
		<SimpleData name="面積">0.1709</SimpleData>
		<SimpleData name="乙区分"></SimpleData>
		<SimpleData name="共有者数">0</SimpleData>
		<SimpleData name="登記年月日">2017/4/5</SimpleData>
		<SimpleData name="q_kyouyuushakanrenjouhou_keyno"></SimpleData>
		<SimpleData name="持ち分"></SimpleData>
	</SchemaData></ExtendedData>
      <MultiGeometry><Polygon><outerBoundaryIs><LinearRing><coordinates>135.131981135185,34.0884895150589 135.132035523367,34.0884575149228 135.132099434072,34.0884342461153 135.132134821454,34.0884112265781 135.132223171007,34.0883663844743 135.132260882815,34.0883470687378 135.132309032718,34.0883285299325 135.132305915995,34.088322819016 135.132288566408,34.0882995441743 135.132272518959,34.088235734937 135.13226656295,34.0881801291298 135.132269839541,34.0881531773053 135.132269888636,34.088133496385 135.132267147236,34.0880994968601 135.132247503192,34.0880069201727 135.132221760046,34.0879386157391 135.132225408557,34.0878996396013 135.132227670251,34.0878808217835 135.132227745322,34.0878097425534 135.132223204314,34.0877737017833 135.13220309491,34.0876821405722 135.132188809428,34.0876357620927 135.13218311512,34.0876309796147 135.132175891853,34.0876156830486 135.132174467613,34.0876384466415 135.132143525493,34.0876474511387 135.132132675116,34.0876350500355 135.132112632675,34.0876272000367 135.132112458411,34.0876506486357 135.132101360192,34.0876582876753 135.132109863228,34.0876968357546 135.132114634585,34.0877272884234 135.132129749222,34.0878028475653 135.132132376937,34.0878437342842 135.132131934459,34.087896653303 135.132130332247,34.0879389797006 135.132162311802,34.0880311476767 135.132180909745,34.0881104819439 135.132177602138,34.0881500284758 135.132174466621,34.0881737717058 135.13217867511,34.0882158506436 135.13218662985,34.0882646006112 135.13214097541,34.0882626553014 135.1320716965,34.0882470736344 135.132070316455,34.0882049786118 135.132082672092,34.0881505840386 135.132083580811,34.0881018876621 135.132066387937,34.0880526486883 135.132058520404,34.0880378344126 135.132028796411,34.0879614417843 135.132020241485,34.0879194854008 135.13201422529,34.0878613006655 135.13199164353,34.0877518798905 135.131988614218,34.0877439787688 135.131975727602,34.087751659256 135.131938416203,34.0877561829779 135.131901961936,34.0877584768518 135.131901832379,34.0877796628254 135.131899706512,34.0878202004116 135.131897066975,34.087903631056 135.131899406145,34.0879451738854 135.131897900316,34.0879578753787 135.131929599398,34.0880445869345 135.131949209659,34.0880852330158 135.131967071992,34.0881198352431 135.131967186528,34.0881362175737 135.131962384943,34.0881968502744 135.131966245224,34.0882475547802 135.131972365253,34.088283886199 135.13197030605,34.088303030006 135.131971919833,34.0883317744331 135.131966221719,34.0883539037731 135.131962963816,34.0884044948763 135.131967752123,34.088449210499 135.131981135185,34.0884895150589</coordinates></LinearRing></outerBoundaryIs></Polygon></MultiGeometry>
  </Placemark>
  <Placemark>
	<Style><LineStyle><color>ff0000ff</color></LineStyle><PolyStyle><fill>0</fill></PolyStyle></Style>
	<ExtendedData><SchemaData schemaUrl="#c204_aridashi">
		<SimpleData name="市町村">有田市</SimpleData>
		<SimpleData name="大字">新堂</SimpleData>
		<SimpleData name="字">字瀧形谷</SimpleData>
		<SimpleData name="q_kyouyuushakanrenjouhou_tkigo"></SimpleData>
		<SimpleData name="地番">907</SimpleData>
		<SimpleData name="地目">畑</SimpleData>
		<SimpleData name="面積">0.2183</SimpleData>
		<SimpleData name="乙区分"></SimpleData>
		<SimpleData name="共有者数">0</SimpleData>
		<SimpleData name="登記年月日">2017/4/5</SimpleData>
		<SimpleData name="q_kyouyuushakanrenjouhou_keyno"></SimpleData>
		<SimpleData name="持ち分"></SimpleData>
	</SchemaData></ExtendedData>
      <MultiGeometry><Polygon><outerBoundaryIs><LinearRing><coordinates>135.131807329452,34.0886884624837 135.13182980242,34.0886609881792 135.13186144001,34.0886168004179 135.131880996773,34.0885883858962 135.131914486931,34.0885506033392 135.131944242518,34.0885262367897 135.131981135185,34.0884895150589 135.131967752123,34.088449210499 135.131962963816,34.0884044948763 135.131966221719,34.0883539037731 135.131971919833,34.0883317744331 135.13197030605,34.088303030006 135.131972365253,34.088283886199 135.131966245224,34.0882475547802 135.131962384943,34.0881968502744 135.131967186528,34.0881362175737 135.131967071992,34.0881198352431 135.131949209659,34.0880852330158 135.131929599398,34.0880445869345 135.131897900316,34.0879578753787 135.131899406145,34.0879451738854 135.131897066975,34.087903631056 135.131899706512,34.0878202004116 135.131901832379,34.0877796628254 135.131901961936,34.0877584768518 135.131864073499,34.0877632669448 135.131818529665,34.0877674980517 135.131760627696,34.0877488681578 135.131768881665,34.0877746482714 135.131744810531,34.0877782467256 135.131696495088,34.0878119575615 135.131641092569,34.0878276500037 135.131652602515,34.0878837008009 135.131656470639,34.0879399860892 135.131670170892,34.0879927165565 135.131696437456,34.088080823271 135.131734714695,34.0881642726036 135.131743144844,34.0881887196395 135.131758677533,34.0882424096936 135.131686489603,34.0882538543421 135.131696950331,34.0882874396167 135.131700928617,34.0883350615946 135.13169878555,34.0883719657257 135.131694485889,34.0884120732186 135.131688124805,34.0884842710364 135.131680382214,34.0885442518365 135.131675755492,34.0885675697897 135.131726025889,34.0886268696915 135.131746803041,34.088642379272 135.131777084835,34.0886673143091 135.131807329452,34.0886884624837</coordinates></LinearRing></outerBoundaryIs></Polygon></MultiGeometry>
  </Placemark>
  <Placemark>
	<Style><LineStyle><color>ff0000ff</color></LineStyle><PolyStyle><fill>0</fill></PolyStyle></Style>
	<ExtendedData><SchemaData schemaUrl="#c204_aridashi">
		<SimpleData name="市町村">有田市</SimpleData>
		<SimpleData name="大字">新堂</SimpleData>
		<SimpleData name="字">字瀧形谷</SimpleData>
		<SimpleData name="q_kyouyuushakanrenjouhou_tkigo"></SimpleData>
		<SimpleData name="地番">909-1</SimpleData>
		<SimpleData name="地目">畑</SimpleData>
		<SimpleData name="面積">0.2327</SimpleData>
		<SimpleData name="乙区分"></SimpleData>
		<SimpleData name="共有者数">0</SimpleData>
		<SimpleData name="登記年月日">2017/4/5</SimpleData>
		<SimpleData name="q_kyouyuushakanrenjouhou_keyno"></SimpleData>
		<SimpleData name="持ち分"></SimpleData>
	</SchemaData></ExtendedData>
      <MultiGeometry><Polygon><outerBoundaryIs><LinearRing><coordinates>135.131465819351,34.088747580839 135.131675755492,34.0885675697897 135.131680382214,34.0885442518365 135.131688124805,34.0884842710364 135.131694485889,34.0884120732186 135.13169878555,34.0883719657257 135.131700928617,34.0883350615946 135.131696950331,34.0882874396167 135.131686489603,34.0882538543421 135.131758677533,34.0882424096936 135.131743144844,34.0881887196395 135.131734714695,34.0881642726036 135.131696437456,34.088080823271 135.131670170892,34.0879927165565 135.131656470639,34.0879399860892 135.131652602515,34.0878837008009 135.131641092569,34.0878276500037 135.13154049357,34.0878453850646 135.131385436026,34.0879073266755 135.131416902815,34.0880443172578 135.131518737602,34.0882133241448 135.131558056626,34.088330571724 135.131488076447,34.0883486493814 135.131436703971,34.0883559134924 135.131313889216,34.0883939028397 135.131326976071,34.0884578715761 135.131331764107,34.0885036420549 135.131330700691,34.0885812326304 135.13131009305,34.0886011198002 135.131441370961,34.0887350384686 135.131465819351,34.088747580839</coordinates></LinearRing></outerBoundaryIs></Polygon></MultiGeometry>
  </Placemark>
  <Placemark>
	<Style><LineStyle><color>ff0000ff</color></LineStyle><PolyStyle><fill>0</fill></PolyStyle></Style>
	<ExtendedData><SchemaData schemaUrl="#c204_aridashi">
		<SimpleData name="市町村">有田市</SimpleData>
		<SimpleData name="大字">新堂</SimpleData>
		<SimpleData name="字">字瀧形谷</SimpleData>
		<SimpleData name="q_kyouyuushakanrenjouhou_tkigo"></SimpleData>
		<SimpleData name="地番">913-2</SimpleData>
		<SimpleData name="地目">山林</SimpleData>
		<SimpleData name="面積">0.025</SimpleData>
		<SimpleData name="乙区分"></SimpleData>
		<SimpleData name="共有者数">0</SimpleData>
		<SimpleData name="登記年月日">2017/4/5</SimpleData>
		<SimpleData name="q_kyouyuushakanrenjouhou_keyno"></SimpleData>
		<SimpleData name="持ち分"></SimpleData>
	</SchemaData></ExtendedData>
      <MultiGeometry><Polygon><outerBoundaryIs><LinearRing><coordinates>135.131504604059,34.0888386430696 135.131726025889,34.0886268696915 135.131675755492,34.0885675697897 135.131465819351,34.088747580839 135.131504297508,34.0888156058003 135.131504604059,34.0888386430696</coordinates></LinearRing></outerBoundaryIs></Polygon></MultiGeometry>
  </Placemark>
  <Placemark>
	<Style><LineStyle><color>ff0000ff</color></LineStyle><PolyStyle><fill>0</fill></PolyStyle></Style>
	<ExtendedData><SchemaData schemaUrl="#c204_aridashi">
		<SimpleData name="市町村">有田市</SimpleData>
		<SimpleData name="大字">新堂</SimpleData>
		<SimpleData name="字">字瀧形谷</SimpleData>
		<SimpleData name="q_kyouyuushakanrenjouhou_tkigo"></SimpleData>
		<SimpleData name="地番">921-1</SimpleData>
		<SimpleData name="地目">畑</SimpleData>
		<SimpleData name="面積">0.1585</SimpleData>
		<SimpleData name="乙区分"></SimpleData>
		<SimpleData name="共有者数">0</SimpleData>
		<SimpleData name="登記年月日">2017/4/5</SimpleData>
		<SimpleData name="q_kyouyuushakanrenjouhou_keyno"></SimpleData>
		<SimpleData name="持ち分"></SimpleData>
	</SchemaData></ExtendedData>
      <MultiGeometry><Polygon><outerBoundaryIs><LinearRing><coordinates>135.132505114815,34.0889126080881 135.132530447852,34.0887980712371 135.132588369607,34.088668230419 135.132614614547,34.0886448847414 135.132607985122,34.0886446576238 135.132671914543,34.0885557994557 135.132670584143,34.0885364333622 135.132623276068,34.0885255510166 135.132537932021,34.0884967113055 135.132542075927,34.0884824596996 135.132540341648,34.0884676346645 135.132513384853,34.0884502874604 135.132488954205,34.0884753048163 135.132439003785,34.0884430185093 135.132392906295,34.0884165114053 135.132280561507,34.0883566020793 135.132260882815,34.0883470687378 135.132223171007,34.0883663844743 135.13221777432,34.0883940245462 135.13224131841,34.0884081110758 135.132187596186,34.0884842388278 135.13214842526,34.088529725817 135.132124301149,34.0885661050419 135.132098413086,34.0885863246885 135.132084628249,34.0886013105696 135.132080896752,34.0886101827017 135.132099165849,34.088611312501 135.132132464366,34.0886177865843 135.132184411921,34.088632758953 135.132216819315,34.0886479809603 135.132233024174,34.088660257592 135.132279636031,34.08869902072 135.132326409996,34.0887548246416 135.132419957396,34.0888590666036 135.132418504598,34.0888665754354 135.132457662255,34.0889105600399 135.132472814886,34.0888974590405 135.132492011301,34.0888990461147 135.132505114815,34.0889126080881</coordinates></LinearRing></outerBoundaryIs></Polygon></MultiGeometry>
  </Placemark>
  <Placemark>
	<Style><LineStyle><color>ff0000ff</color></LineStyle><PolyStyle><fill>0</fill></PolyStyle></Style>
	<ExtendedData><SchemaData schemaUrl="#c204_aridashi">
		<SimpleData name="市町村">有田市</SimpleData>
		<SimpleData name="大字">新堂</SimpleData>
		<SimpleData name="字">字瀧形谷</SimpleData>
		<SimpleData name="q_kyouyuushakanrenjouhou_tkigo"></SimpleData>
		<SimpleData name="地番">921-2</SimpleData>
		<SimpleData name="地目">畑</SimpleData>
		<SimpleData name="面積">0.0628</SimpleData>
		<SimpleData name="乙区分"></SimpleData>
		<SimpleData name="共有者数">0</SimpleData>
		<SimpleData name="登記年月日">2017/4/5</SimpleData>
		<SimpleData name="q_kyouyuushakanrenjouhou_keyno"></SimpleData>
		<SimpleData name="持ち分"></SimpleData>
	</SchemaData></ExtendedData>
      <MultiGeometry><Polygon><outerBoundaryIs><LinearRing><coordinates>135.132670584143,34.0885364333622 135.132661679251,34.0884448160937 135.13265511055,34.0883780715934 135.132640040552,34.0883512066148 135.132633904388,34.0883259914681 135.132625520592,34.0883245979569 135.132620944965,34.0882526203887 135.132606171911,34.0882295801578 135.132597061938,34.0882239531558 135.132575878848,34.0882365517962 135.132543941572,34.0882559895433 135.132490012855,34.0882737844136 135.132472102734,34.0882873978726 135.132437872468,34.0882936654985 135.132374760449,34.0883066441983 135.132321031791,34.0883388114276 135.132309032718,34.0883285299325 135.132260882815,34.0883470687378 135.132280561507,34.0883566020793 135.132392906295,34.0884165114053 135.132439003785,34.0884430185093 135.132488954205,34.0884753048163 135.132513384853,34.0884502874604 135.132540341648,34.0884676346645 135.132542075927,34.0884824596996 135.132537932021,34.0884967113055 135.132623276068,34.0885255510166 135.132670584143,34.0885364333622</coordinates></LinearRing></outerBoundaryIs></Polygon></MultiGeometry>
  </Placemark>
  <Placemark>
	<Style><LineStyle><color>ff0000ff</color></LineStyle><PolyStyle><fill>0</fill></PolyStyle></Style>
	<ExtendedData><SchemaData schemaUrl="#c204_aridashi">
		<SimpleData name="市町村">有田市</SimpleData>
		<SimpleData name="大字">新堂</SimpleData>
		<SimpleData name="字">字瀧形谷</SimpleData>
		<SimpleData name="q_kyouyuushakanrenjouhou_tkigo"></SimpleData>
		<SimpleData name="地番">922</SimpleData>
		<SimpleData name="地目">山林</SimpleData>
		<SimpleData name="面積">0.8192</SimpleData>
		<SimpleData name="乙区分"></SimpleData>
		<SimpleData name="共有者数">0</SimpleData>
		<SimpleData name="登記年月日">2017/4/5</SimpleData>
		<SimpleData name="q_kyouyuushakanrenjouhou_keyno"></SimpleData>
		<SimpleData name="持ち分"></SimpleData>
	</SchemaData></ExtendedData>
      <MultiGeometry><Polygon><outerBoundaryIs><LinearRing><coordinates>135.131972208436,34.089370492837 135.131978893217,34.0893653019476 135.131992439691,34.089360943902 135.132005354901,34.08935897957 135.132021749618,34.0893600961396 135.132041202158,34.0893652643254 135.13206638618,34.0893768921734 135.132086345068,34.0893908452164 135.132103050697,34.0894071554181 135.132117715119,34.0894334135417 135.13212261071,34.0894495772033 135.13216185074,34.0894695717159 135.132176960189,34.0894607168429 135.132262396267,34.089535844037 135.132308193755,34.0895684436813 135.132424781147,34.0895992802793 135.13247133802,34.0896031251576 135.132414059461,34.0892215821578 135.132793591983,34.0893498142805 135.132766742793,34.0890583456486 135.132771588015,34.0890316392942 135.132773224981,34.0890166938086 135.132766030018,34.0889082743491 135.132765730644,34.0888621839946 135.132779895142,34.0887950809741 135.132745184987,34.0886443639826 135.132621243972,34.0886451118586 135.132614614547,34.0886448847414 135.132588369607,34.088668230419 135.132530447852,34.0887980712371 135.132505114815,34.0889126080881 135.132492011301,34.0888990461147 135.132472814886,34.0888974590405 135.132457662255,34.0889105600399 135.132418504598,34.0888665754354 135.132419957396,34.0888590666036 135.132326409996,34.0887548246416 135.132279636031,34.08869902072 135.132233024174,34.088660257592 135.132216819315,34.0886479809603 135.132184411921,34.088632758953 135.132132464366,34.0886177865843 135.132099165849,34.088611312501 135.132080896752,34.0886101827017 135.132084628249,34.0886013105696 135.132098413086,34.0885863246885 135.132124301149,34.0885661050419 135.13214842526,34.088529725817 135.132187596186,34.0884842388278 135.13224131841,34.0884081110758 135.13221777432,34.0883940245462 135.132223171007,34.0883663844743 135.132134821454,34.0884112265781 135.132099434072,34.0884342461153 135.132035523367,34.0884575149228 135.131981135185,34.0884895150589 135.131944242518,34.0885262367897 135.131914486931,34.0885506033392 135.131880996773,34.0885883858962 135.13186144001,34.0886168004179 135.13182980242,34.0886609881792 135.131807329452,34.0886884624837 135.131777084835,34.0886673143091 135.131746803041,34.088642379272 135.131726025889,34.0886268696915 135.131504604059,34.0888386430696 135.131477916015,34.0888639598111 135.131635219548,34.0889770106022 135.131884909006,34.0890511982281 135.131712240134,34.0891970330458 135.131702169255,34.0892027319158 135.131769022236,34.089255396237 135.131972208436,34.089370492837</coordinates></LinearRing></outerBoundaryIs></Polygon></MultiGeometry>
  </Placemark>
  <Placemark>
	<Style><LineStyle><color>ff0000ff</color></LineStyle><PolyStyle><fill>0</fill></PolyStyle></Style>
	<ExtendedData><SchemaData schemaUrl="#c204_aridashi">
		<SimpleData name="市町村">有田市</SimpleData>
		<SimpleData name="大字">新堂</SimpleData>
		<SimpleData name="字">字瀧形谷</SimpleData>
		<SimpleData name="q_kyouyuushakanrenjouhou_tkigo"></SimpleData>
		<SimpleData name="地番">922-3</SimpleData>
		<SimpleData name="地目">山林</SimpleData>
		<SimpleData name="面積">0.0598</SimpleData>
		<SimpleData name="乙区分"></SimpleData>
		<SimpleData name="共有者数">0</SimpleData>
		<SimpleData name="登記年月日">2017/4/5</SimpleData>
		<SimpleData name="q_kyouyuushakanrenjouhou_keyno"></SimpleData>
		<SimpleData name="持ち分"></SimpleData>
	</SchemaData></ExtendedData>
      <MultiGeometry><Polygon><outerBoundaryIs><LinearRing><coordinates>135.131702169255,34.0892027319158 135.131712240134,34.0891970330458 135.131884909006,34.0890511982281 135.131635219548,34.0889770106022 135.131477916015,34.0888639598111 135.131421092038,34.0889572221554 135.131525928998,34.0890360842776 135.13168078632,34.0891860460063 135.131702169255,34.0892027319158</coordinates></LinearRing></outerBoundaryIs></Polygon></MultiGeometry>
  </Placemark>
  <Placemark>
	<Style><LineStyle><color>ff0000ff</color></LineStyle><PolyStyle><fill>0</fill></PolyStyle></Style>
	<ExtendedData><SchemaData schemaUrl="#c204_aridashi">
		<SimpleData name="市町村">有田市</SimpleData>
		<SimpleData name="大字">新堂</SimpleData>
		<SimpleData name="字">字瀧形谷</SimpleData>
		<SimpleData name="q_kyouyuushakanrenjouhou_tkigo"></SimpleData>
		<SimpleData name="地番">923-2</SimpleData>
		<SimpleData name="地目">公衆用道路</SimpleData>
		<SimpleData name="面積">0.0048</SimpleData>
		<SimpleData name="乙区分"></SimpleData>
		<SimpleData name="共有者数">0</SimpleData>
		<SimpleData name="登記年月日">2017/4/5</SimpleData>
		<SimpleData name="q_kyouyuushakanrenjouhou_keyno"></SimpleData>
		<SimpleData name="持ち分"></SimpleData>
	</SchemaData></ExtendedData>
      <MultiGeometry><Polygon><outerBoundaryIs><LinearRing><coordinates>135.13212261071,34.0894495772033 135.132117715119,34.0894334135417 135.132103050697,34.0894071554181 135.132086345068,34.0893908452164 135.13206638618,34.0893768921734 135.132041202158,34.0893652643254 135.132021749618,34.0893600961396 135.132005354901,34.08935897957 135.131992439691,34.089360943902 135.131978893217,34.0893653019476 135.131972208436,34.089370492837 135.13212261071,34.0894495772033</coordinates></LinearRing></outerBoundaryIs></Polygon></MultiGeometry>
  </Placemark>
  <Placemark>
	<Style><LineStyle><color>ff0000ff</color></LineStyle><PolyStyle><fill>0</fill></PolyStyle></Style>
	<ExtendedData><SchemaData schemaUrl="#c204_aridashi">
		<SimpleData name="市町村">有田市</SimpleData>
		<SimpleData name="大字">新堂</SimpleData>
		<SimpleData name="字">字瀧形谷</SimpleData>
		<SimpleData name="q_kyouyuushakanrenjouhou_tkigo"></SimpleData>
		<SimpleData name="地番">924-2</SimpleData>
		<SimpleData name="地目">畑</SimpleData>
		<SimpleData name="面積">0.062</SimpleData>
		<SimpleData name="乙区分"></SimpleData>
		<SimpleData name="共有者数">0</SimpleData>
		<SimpleData name="登記年月日">2017/4/5</SimpleData>
		<SimpleData name="q_kyouyuushakanrenjouhou_keyno"></SimpleData>
		<SimpleData name="持ち分"></SimpleData>
	</SchemaData></ExtendedData>
      <MultiGeometry><Polygon><outerBoundaryIs><LinearRing><coordinates>135.132161299902,34.0897178780987 135.132172172168,34.0897228504196 135.132196723484,34.089742335458 135.132255705688,34.0897656879907 135.132282327711,34.0897702125682 135.132430388806,34.0897697796271 135.132485445953,34.0897816814473 135.132487988909,34.089714045627 135.132446194094,34.0896629741075 135.132326744831,34.0895886887137 135.132296515149,34.0895809020321 135.132237390237,34.0895439348116 135.132213172811,34.0895214679443 135.132181564577,34.0895234715581 135.132127662867,34.0894705743833 135.132131939143,34.0894985802931 135.132129287924,34.0895279527311 135.132126518522,34.0895476685247 135.132127271418,34.089575829859 135.132130838617,34.0896085459679 135.132134593068,34.0896356556371 135.132142850792,34.0896430437291 135.132151279392,34.0896804102134 135.132161299902,34.0897178780987</coordinates></LinearRing></outerBoundaryIs></Polygon></MultiGeometry>
  </Placemark>
  <Placemark>
	<Style><LineStyle><color>ff0000ff</color></LineStyle><PolyStyle><fill>0</fill></PolyStyle></Style>
	<ExtendedData><SchemaData schemaUrl="#c204_aridashi">
		<SimpleData name="市町村">有田市</SimpleData>
		<SimpleData name="大字">新堂</SimpleData>
		<SimpleData name="字">字瀧形谷</SimpleData>
		<SimpleData name="q_kyouyuushakanrenjouhou_tkigo"></SimpleData>
		<SimpleData name="地番">924-6</SimpleData>
		<SimpleData name="地目">山林</SimpleData>
		<SimpleData name="面積">0.0133</SimpleData>
		<SimpleData name="乙区分"></SimpleData>
		<SimpleData name="共有者数">0</SimpleData>
		<SimpleData name="登記年月日">2017/4/5</SimpleData>
		<SimpleData name="q_kyouyuushakanrenjouhou_keyno"></SimpleData>
		<SimpleData name="持ち分"></SimpleData>
	</SchemaData></ExtendedData>
      <MultiGeometry><Polygon><outerBoundaryIs><LinearRing><coordinates>135.132127662867,34.0894705743833 135.132181564577,34.0895234715581 135.132213172811,34.0895214679443 135.132237390237,34.0895439348116 135.132296515149,34.0895809020321 135.132326744831,34.0895886887137 135.132446194094,34.0896629741075 135.132487988909,34.089714045627 135.13247133802,34.0896031251576 135.132424781147,34.0895992802793 135.132308193755,34.0895684436813 135.132262396267,34.089535844037 135.132176960189,34.0894607168429 135.13216185074,34.0894695717159 135.13212261071,34.0894495772033 135.132127662867,34.0894705743833</coordinates></LinearRing></outerBoundaryIs></Polygon></MultiGeometry>
  </Placemark>
  <Placemark>
	<Style><LineStyle><color>ff0000ff</color></LineStyle><PolyStyle><fill>0</fill></PolyStyle></Style>
	<ExtendedData><SchemaData schemaUrl="#c204_aridashi">
		<SimpleData name="市町村">有田市</SimpleData>
		<SimpleData name="大字">新堂</SimpleData>
		<SimpleData name="字">字瀧形谷</SimpleData>
		<SimpleData name="q_kyouyuushakanrenjouhou_tkigo"></SimpleData>
		<SimpleData name="地番">926</SimpleData>
		<SimpleData name="地目">畑</SimpleData>
		<SimpleData name="面積">0.3331</SimpleData>
		<SimpleData name="乙区分"></SimpleData>
		<SimpleData name="共有者数">0</SimpleData>
		<SimpleData name="登記年月日">2017/4/5</SimpleData>
		<SimpleData name="q_kyouyuushakanrenjouhou_keyno"></SimpleData>
		<SimpleData name="持ち分"></SimpleData>
	</SchemaData></ExtendedData>
      <MultiGeometry><Polygon><outerBoundaryIs><LinearRing><coordinates>135.133127306588,34.0895081319038 135.133177373819,34.0894801398129 135.133192483524,34.0894032072937 135.133203077667,34.0893801838245 135.133239613528,34.0893582539596 135.133243607602,34.0893427480926 135.133227707274,34.089234645904 135.133266637477,34.0892042491516 135.13334946815,34.0891055165541 135.133340578254,34.089095293154 135.133394525546,34.08902360221 135.133447008878,34.0889732771331 135.133424908062,34.08892385948 135.133388480859,34.088795841094 135.133377158507,34.088769110828 135.133368512253,34.0887594391057 135.133336148375,34.0887505557426 135.13328220904,34.0888523140712 135.133242243537,34.0889056304454 135.133163038293,34.0889538014786 135.13311677598,34.0888200968442 135.13308220345,34.0887961416163 135.13302246648,34.0888192330254 135.132948091488,34.0888294007806 135.132779895142,34.0887950809741 135.132765730644,34.0888621839946 135.132766030018,34.0889082743491 135.132773224981,34.0890166938086 135.132771588015,34.0890316392942 135.132766742793,34.0890583456486 135.132793591983,34.0893498142805 135.132906205264,34.0893750506698 135.133076674427,34.0894990564614 135.133127306588,34.0895081319038</coordinates></LinearRing></outerBoundaryIs></Polygon></MultiGeometry>
  </Placemark>
  <Placemark>
	<Style><LineStyle><color>ff0000ff</color></LineStyle><PolyStyle><fill>0</fill></PolyStyle></Style>
	<ExtendedData><SchemaData schemaUrl="#c204_aridashi">
		<SimpleData name="市町村">有田市</SimpleData>
		<SimpleData name="大字">新堂</SimpleData>
		<SimpleData name="字">字瀧形谷</SimpleData>
		<SimpleData name="q_kyouyuushakanrenjouhou_tkigo"></SimpleData>
		<SimpleData name="地番">927</SimpleData>
		<SimpleData name="地目">山林</SimpleData>
		<SimpleData name="面積">0.1692</SimpleData>
		<SimpleData name="乙区分"></SimpleData>
		<SimpleData name="共有者数">0</SimpleData>
		<SimpleData name="登記年月日">2017/4/5</SimpleData>
		<SimpleData name="q_kyouyuushakanrenjouhou_keyno"></SimpleData>
		<SimpleData name="持ち分"></SimpleData>
	</SchemaData></ExtendedData>
      <MultiGeometry><Polygon><outerBoundaryIs><LinearRing><coordinates>135.132487988909,34.089714045627 135.13254564156,34.0897222062023 135.132575225967,34.0896700248778 135.132793978643,34.0895796902063 135.133127306588,34.0895081319038 135.133076674427,34.0894990564614 135.132906205264,34.0893750506698 135.132793591983,34.0893498142805 135.132414059461,34.0892215821578 135.13247133802,34.0896031251576 135.132487988909,34.089714045627</coordinates></LinearRing></outerBoundaryIs></Polygon></MultiGeometry>
  </Placemark>
  <Placemark>
	<Style><LineStyle><color>ff0000ff</color></LineStyle><PolyStyle><fill>0</fill></PolyStyle></Style>
	<ExtendedData><SchemaData schemaUrl="#c204_aridashi">
		<SimpleData name="市町村">有田市</SimpleData>
		<SimpleData name="大字">新堂</SimpleData>
		<SimpleData name="字">字瀧形谷</SimpleData>
		<SimpleData name="q_kyouyuushakanrenjouhou_tkigo"></SimpleData>
		<SimpleData name="地番">927-1</SimpleData>
		<SimpleData name="地目">畑</SimpleData>
		<SimpleData name="面積">0.0489</SimpleData>
		<SimpleData name="乙区分"></SimpleData>
		<SimpleData name="共有者数">0</SimpleData>
		<SimpleData name="登記年月日">2017/4/5</SimpleData>
		<SimpleData name="q_kyouyuushakanrenjouhou_keyno"></SimpleData>
		<SimpleData name="持ち分"></SimpleData>
	</SchemaData></ExtendedData>
      <MultiGeometry><Polygon><outerBoundaryIs><LinearRing><coordinates>135.132628925688,34.0898065139583 135.13278988613,34.0898290625029 135.132781822395,34.0898185834398 135.132791373019,34.0896811254367 135.132793978643,34.0895796902063 135.132575225967,34.0896700248778 135.13254564156,34.0897222062023 135.132487988909,34.089714045627 135.132485445953,34.0897816814473 135.132525518046,34.0897976787514 135.132628925688,34.0898065139583</coordinates></LinearRing></outerBoundaryIs></Polygon></MultiGeometry>
  </Placemark>
  <Placemark>
	<Style><LineStyle><color>ff0000ff</color></LineStyle><PolyStyle><fill>0</fill></PolyStyle></Style>
	<ExtendedData><SchemaData schemaUrl="#c204_aridashi">
		<SimpleData name="市町村">有田市</SimpleData>
		<SimpleData name="大字">新堂</SimpleData>
		<SimpleData name="字">字瀧形谷</SimpleData>
		<SimpleData name="q_kyouyuushakanrenjouhou_tkigo"></SimpleData>
		<SimpleData name="地番">930</SimpleData>
		<SimpleData name="地目">畑</SimpleData>
		<SimpleData name="面積">0.1326</SimpleData>
		<SimpleData name="乙区分"></SimpleData>
		<SimpleData name="共有者数">0</SimpleData>
		<SimpleData name="登記年月日">2017/4/5</SimpleData>
		<SimpleData name="q_kyouyuushakanrenjouhou_keyno"></SimpleData>
		<SimpleData name="持ち分"></SimpleData>
	</SchemaData></ExtendedData>
      <MultiGeometry><Polygon><outerBoundaryIs><LinearRing><coordinates>135.13332923166,34.0897121301706 135.133345983725,34.0896835063039 135.133377888263,34.0896534927132 135.133413765755,34.0896206762088 135.133452784026,34.089543362338 135.133489513567,34.0894588197539 135.133498894417,34.0894400070475 135.13348565107,34.0894316372341 135.133430690472,34.0894294103857 135.133392513386,34.0894369396791 135.133346937512,34.0894569936657 135.133309658211,34.0894785035955 135.133302919025,34.0894879766297 135.133251304183,34.0895168413922 135.133203788332,34.0895475472069 135.133112912721,34.0895679847202 135.133127306588,34.0895081319038 135.132793978643,34.0895796902063 135.132791373019,34.0896811254367 135.132845320732,34.0896913062825 135.133000940863,34.089783796686 135.133081164311,34.0897952807981 135.133067599025,34.0897621515682 135.133233794945,34.0897058761837 135.133248815831,34.0896929454592 135.133287907957,34.0896775159016 135.13332923166,34.0897121301706</coordinates></LinearRing></outerBoundaryIs></Polygon></MultiGeometry>
  </Placemark>
  <Placemark>
	<Style><LineStyle><color>ff0000ff</color></LineStyle><PolyStyle><fill>0</fill></PolyStyle></Style>
	<ExtendedData><SchemaData schemaUrl="#c204_aridashi">
		<SimpleData name="市町村">有田市</SimpleData>
		<SimpleData name="大字">新堂</SimpleData>
		<SimpleData name="字">字瀧形谷</SimpleData>
		<SimpleData name="q_kyouyuushakanrenjouhou_tkigo"></SimpleData>
		<SimpleData name="地番">930-1</SimpleData>
		<SimpleData name="地目">畑</SimpleData>
		<SimpleData name="面積">0.1781</SimpleData>
		<SimpleData name="乙区分"></SimpleData>
		<SimpleData name="共有者数">0</SimpleData>
		<SimpleData name="登記年月日">2017/4/5</SimpleData>
		<SimpleData name="q_kyouyuushakanrenjouhou_keyno"></SimpleData>
		<SimpleData name="持ち分"></SimpleData>
	</SchemaData></ExtendedData>
      <MultiGeometry><Polygon><outerBoundaryIs><LinearRing><coordinates>135.133112912721,34.0895679847202 135.133203788332,34.0895475472069 135.133251304183,34.0895168413922 135.133302919025,34.0894879766297 135.133309658211,34.0894785035955 135.133346937512,34.0894569936657 135.133392513386,34.0894369396791 135.133430690472,34.0894294103857 135.13348565107,34.0894316372341 135.133498894417,34.0894400070475 135.133512790439,34.0894257971427 135.133570605017,34.0893329645447 135.133595714074,34.0892753870638 135.133623607906,34.0892167563468 135.133623322178,34.089192682421 135.133606529878,34.0891252888729 135.133649927826,34.0891360440976 135.133662509397,34.0890998085732 135.133686734404,34.0890417740518 135.133699752323,34.0889616351537 135.133651618824,34.0889445175346 135.133635253275,34.0889394795604 135.133589697886,34.0889309630411 135.133559386016,34.0889333818601 135.133520796309,34.088943144179 135.133485130868,34.0889562448868 135.133447008878,34.0889732771331 135.133394525546,34.08902360221 135.133340578254,34.089095293154 135.13334946815,34.0891055165541 135.133266637477,34.0892042491516 135.133227707274,34.089234645904 135.133243607602,34.0893427480926 135.133239613528,34.0893582539596 135.133203077667,34.0893801838245 135.133192483524,34.0894032072937 135.133177373819,34.0894801398129 135.133127306588,34.0895081319038 135.133112912721,34.0895679847202</coordinates></LinearRing></outerBoundaryIs></Polygon></MultiGeometry>
  </Placemark>
  <Placemark>
	<Style><LineStyle><color>ff0000ff</color></LineStyle><PolyStyle><fill>0</fill></PolyStyle></Style>
	<ExtendedData><SchemaData schemaUrl="#c204_aridashi">
		<SimpleData name="市町村">有田市</SimpleData>
		<SimpleData name="大字">新堂</SimpleData>
		<SimpleData name="字">字瀧形谷</SimpleData>
		<SimpleData name="q_kyouyuushakanrenjouhou_tkigo"></SimpleData>
		<SimpleData name="地番">937-1</SimpleData>
		<SimpleData name="地目">畑</SimpleData>
		<SimpleData name="面積">0.0674</SimpleData>
		<SimpleData name="乙区分"></SimpleData>
		<SimpleData name="共有者数">0</SimpleData>
		<SimpleData name="登記年月日">2017/4/5</SimpleData>
		<SimpleData name="q_kyouyuushakanrenjouhou_keyno"></SimpleData>
		<SimpleData name="持ち分"></SimpleData>
	</SchemaData></ExtendedData>
      <MultiGeometry><Polygon><outerBoundaryIs><LinearRing><coordinates>135.132779895142,34.0887950809741 135.132948091488,34.0888294007806 135.13302246648,34.0888192330254 135.132871704325,34.0885118968117 135.132799490929,34.0885258302659 135.132712478919,34.0885340965274 135.132698504055,34.0885315997005 135.132684941949,34.0885364445632 135.132682879627,34.0885601593191 135.132621243972,34.0886451118586 135.132745184987,34.0886443639826 135.132779895142,34.0887950809741</coordinates></LinearRing></outerBoundaryIs></Polygon></MultiGeometry>
  </Placemark>
  <Placemark>
	<Style><LineStyle><color>ff0000ff</color></LineStyle><PolyStyle><fill>0</fill></PolyStyle></Style>
	<ExtendedData><SchemaData schemaUrl="#c204_aridashi">
		<SimpleData name="市町村">有田市</SimpleData>
		<SimpleData name="大字">新堂</SimpleData>
		<SimpleData name="字">字瀧形谷</SimpleData>
		<SimpleData name="q_kyouyuushakanrenjouhou_tkigo"></SimpleData>
		<SimpleData name="地番">937-2</SimpleData>
		<SimpleData name="地目">畑</SimpleData>
		<SimpleData name="面積">0.0377</SimpleData>
		<SimpleData name="乙区分"></SimpleData>
		<SimpleData name="共有者数">0</SimpleData>
		<SimpleData name="登記年月日">2017/4/5</SimpleData>
		<SimpleData name="q_kyouyuushakanrenjouhou_keyno"></SimpleData>
		<SimpleData name="持ち分"></SimpleData>
	</SchemaData></ExtendedData>
      <MultiGeometry><Polygon><outerBoundaryIs><LinearRing><coordinates>135.13302246648,34.0888192330254 135.13308220345,34.0887961416163 135.133098737834,34.0887240155036 135.133091346133,34.0886539925213 135.133075355971,34.0886599743038 135.133060927752,34.0886434819568 135.133015561429,34.0885526622596 135.132981969606,34.0885218078999 135.132934569462,34.0884646835124 135.132922985608,34.0884753124091 135.132871704325,34.0885118968117 135.13302246648,34.0888192330254</coordinates></LinearRing></outerBoundaryIs></Polygon></MultiGeometry>
  </Placemark>
  <Placemark>
	<Style><LineStyle><color>ff0000ff</color></LineStyle><PolyStyle><fill>0</fill></PolyStyle></Style>
	<ExtendedData><SchemaData schemaUrl="#c204_aridashi">
		<SimpleData name="市町村">有田市</SimpleData>
		<SimpleData name="大字">新堂</SimpleData>
		<SimpleData name="字">字瀧形谷</SimpleData>
		<SimpleData name="q_kyouyuushakanrenjouhou_tkigo"></SimpleData>
		<SimpleData name="地番">937-3</SimpleData>
		<SimpleData name="地目">畑</SimpleData>
		<SimpleData name="面積">0.0258</SimpleData>
		<SimpleData name="乙区分"></SimpleData>
		<SimpleData name="共有者数">0</SimpleData>
		<SimpleData name="登記年月日">2017/4/5</SimpleData>
		<SimpleData name="q_kyouyuushakanrenjouhou_keyno"></SimpleData>
		<SimpleData name="持ち分"></SimpleData>
	</SchemaData></ExtendedData>
      <MultiGeometry><Polygon><outerBoundaryIs><LinearRing><coordinates>135.133163038293,34.0889538014786 135.133242243537,34.0889056304454 135.13328220904,34.0888523140712 135.133275400872,34.0888409152798 135.133234990484,34.0887996628662 135.133208908,34.0887656158949 135.133191900222,34.0887130245437 135.133133713977,34.088635015904 135.133130384654,34.0886363357521 135.133135653877,34.0887657572013 135.13311677598,34.0888200968442 135.133163038293,34.0889538014786</coordinates></LinearRing></outerBoundaryIs></Polygon></MultiGeometry>
  </Placemark>
  <Placemark>
	<Style><LineStyle><color>ff0000ff</color></LineStyle><PolyStyle><fill>0</fill></PolyStyle></Style>
	<ExtendedData><SchemaData schemaUrl="#c204_aridashi">
		<SimpleData name="市町村">有田市</SimpleData>
		<SimpleData name="大字">新堂</SimpleData>
		<SimpleData name="字">字瀧形谷</SimpleData>
		<SimpleData name="q_kyouyuushakanrenjouhou_tkigo"></SimpleData>
		<SimpleData name="地番">937-4</SimpleData>
		<SimpleData name="地目">公衆用道路</SimpleData>
		<SimpleData name="面積">0.0067</SimpleData>
		<SimpleData name="乙区分"></SimpleData>
		<SimpleData name="共有者数">0</SimpleData>
		<SimpleData name="登記年月日">2017/4/5</SimpleData>
		<SimpleData name="q_kyouyuushakanrenjouhou_keyno"></SimpleData>
		<SimpleData name="持ち分"></SimpleData>
	</SchemaData></ExtendedData>
      <MultiGeometry><Polygon><outerBoundaryIs><LinearRing><coordinates>135.13308220345,34.0887961416163 135.13311677598,34.0888200968442 135.133135653877,34.0887657572013 135.133130384654,34.0886363357521 135.133091346133,34.0886539925213 135.133098737834,34.0887240155036 135.13308220345,34.0887961416163</coordinates></LinearRing></outerBoundaryIs></Polygon></MultiGeometry>
  </Placemark>
  <Placemark>
	<Style><LineStyle><color>ff0000ff</color></LineStyle><PolyStyle><fill>0</fill></PolyStyle></Style>
	<ExtendedData><SchemaData schemaUrl="#c204_aridashi">
		<SimpleData name="市町村">有田市</SimpleData>
		<SimpleData name="大字">新堂</SimpleData>
		<SimpleData name="字">字瀧形谷</SimpleData>
		<SimpleData name="q_kyouyuushakanrenjouhou_tkigo"></SimpleData>
		<SimpleData name="地番">938-1</SimpleData>
		<SimpleData name="地目">畑</SimpleData>
		<SimpleData name="面積">0.4293</SimpleData>
		<SimpleData name="乙区分"></SimpleData>
		<SimpleData name="共有者数">0</SimpleData>
		<SimpleData name="登記年月日">2017/4/5</SimpleData>
		<SimpleData name="q_kyouyuushakanrenjouhou_keyno"></SimpleData>
		<SimpleData name="持ち分"></SimpleData>
	</SchemaData></ExtendedData>
      <MultiGeometry><Polygon><outerBoundaryIs><LinearRing><coordinates>135.133701278838,34.0889543251711 135.133654400325,34.0889384695842 135.133658025423,34.0888421624196 135.133655324426,34.0887860567192 135.133652321514,34.0887255492288 135.133681608438,34.0887301283561 135.133726807447,34.0887300052895 135.133803060198,34.0887269636854 135.13386431719,34.0887216435346 135.133944630923,34.0887220474211 135.133933964287,34.088683051462 135.133927477508,34.0886241242114 135.133919151686,34.0885350986113 135.133918161585,34.0884748397206 135.133920903004,34.0884642115061 135.133870440182,34.0884779292727 135.133785814767,34.0885040371559 135.133727167605,34.0885074102484 135.133657775597,34.0885050096255 135.133592814717,34.0885005666011 135.133467939145,34.0884633075766 135.133409055441,34.0884473582086 135.133335274531,34.0884237215256 135.133287510747,34.0884214011337 135.133281087676,34.0884019901035 135.133318280038,34.088374078416 135.133332012418,34.0883695322018 135.133368239084,34.088349186873 135.133411455562,34.0883011405171 135.13342652769,34.0882863438776 135.133433021048,34.0882743987986 135.133421201999,34.0882666430762 135.133461206192,34.0881860904834 135.133478968449,34.0881199684084 135.133493595215,34.0880584763166 135.133503383179,34.0880262781633 135.133513322253,34.0880047736932 135.13351969274,34.0879825498459 135.133529687,34.087956691181 135.133583756512,34.0879526908617 135.133570032136,34.0878894481226 135.133576319565,34.0878817569925 135.133536706416,34.0877984430458 135.133443619101,34.0878606620075 135.13334324504,34.0878085014225 135.133301400689,34.0878463336371 135.133286125425,34.0878768161452 135.133301361673,34.0878820625753 135.133266925655,34.0879765926709 135.133239071796,34.0880621534925 135.13320165964,34.0881477911228 135.133146929375,34.0881964053 135.133194088991,34.0882005787168 135.133222314278,34.0882093607932 135.133278142091,34.0882486934438 135.133270252711,34.0882753422852 135.133248837632,34.0882937004366 135.133211415844,34.0883164805528 135.133157789614,34.0883322493191 135.133135171271,34.0883432060885 135.1331123075,34.0883633571336 135.133099018766,34.0883860370215 135.133095694175,34.088418785624 135.133096780243,34.0884982756768 135.133110222557,34.0885593977814 135.133126207319,34.0886124146798 135.133130384654,34.0886363357521 135.133133713977,34.088635015904 135.133191900222,34.0887130245437 135.133208908,34.0887656158949 135.133234990484,34.0887996628662 135.133275400872,34.0888409152798 135.13328220904,34.0888523140712 135.133336148375,34.0887505557426 135.133368512253,34.0887594391057 135.133377158507,34.088769110828 135.133388480859,34.088795841094 135.133424908062,34.08892385948 135.133447008878,34.0889732771331 135.133485130868,34.0889562448868 135.133520796309,34.088943144179 135.133559386016,34.0889333818601 135.133589697886,34.0889309630411 135.133635253275,34.0889394795604 135.133651618824,34.0889445175346 135.133699752323,34.0889616351537 135.133701278838,34.0889543251711</coordinates></LinearRing></outerBoundaryIs></Polygon></MultiGeometry>
  </Placemark>
  <Placemark>
	<Style><LineStyle><color>ff0000ff</color></LineStyle><PolyStyle><fill>0</fill></PolyStyle></Style>
	<ExtendedData><SchemaData schemaUrl="#c204_aridashi">
		<SimpleData name="市町村">有田市</SimpleData>
		<SimpleData name="大字">新堂</SimpleData>
		<SimpleData name="字">字瀧形谷</SimpleData>
		<SimpleData name="q_kyouyuushakanrenjouhou_tkigo"></SimpleData>
		<SimpleData name="地番">938-2</SimpleData>
		<SimpleData name="地目">畑</SimpleData>
		<SimpleData name="面積">0.0399</SimpleData>
		<SimpleData name="乙区分"></SimpleData>
		<SimpleData name="共有者数">0</SimpleData>
		<SimpleData name="登記年月日">2017/4/5</SimpleData>
		<SimpleData name="q_kyouyuushakanrenjouhou_keyno"></SimpleData>
		<SimpleData name="持ち分"></SimpleData>
	</SchemaData></ExtendedData>
      <MultiGeometry><Polygon><outerBoundaryIs><LinearRing><coordinates>135.132934569462,34.0884646835124 135.132981969606,34.0885218078999 135.133015561429,34.0885526622596 135.133060927752,34.0886434819568 135.133075355971,34.0886599743038 135.133091346133,34.0886539925213 135.133066814833,34.0885889695135 135.133070108448,34.0885624505411 135.133058550867,34.0885141620535 135.133042643825,34.0884641569374 135.13305858524,34.0884289369076 135.13306172038,34.0883765057015 135.133074203178,34.088353161985 135.133114824819,34.0883215691051 135.13314165135,34.0883059899309 135.133191200886,34.0882925725537 135.13321503893,34.0882799564748 135.133227031452,34.0882664363936 135.133223247784,34.0882538598485 135.133202211911,34.0882467062421 135.133077169545,34.0882386204448 135.133074493206,34.0882396654124 135.133036259178,34.0882655862225 135.133020318668,34.088272019134 135.133011396874,34.0882808817167 135.132998393771,34.088316996999 135.132944698035,34.088427799649 135.13293554205,34.0884575048654 135.132934569462,34.0884646835124</coordinates></LinearRing></outerBoundaryIs></Polygon></MultiGeometry>
  </Placemark>
  <Placemark>
	<Style><LineStyle><color>ff0000ff</color></LineStyle><PolyStyle><fill>0</fill></PolyStyle></Style>
	<ExtendedData><SchemaData schemaUrl="#c204_aridashi">
		<SimpleData name="市町村">有田市</SimpleData>
		<SimpleData name="大字">新堂</SimpleData>
		<SimpleData name="字">字瀧形谷</SimpleData>
		<SimpleData name="q_kyouyuushakanrenjouhou_tkigo"></SimpleData>
		<SimpleData name="地番">938-3</SimpleData>
		<SimpleData name="地目">公衆用道路</SimpleData>
		<SimpleData name="面積">0.026</SimpleData>
		<SimpleData name="乙区分"></SimpleData>
		<SimpleData name="共有者数">0</SimpleData>
		<SimpleData name="登記年月日">2017/4/5</SimpleData>
		<SimpleData name="q_kyouyuushakanrenjouhou_keyno"></SimpleData>
		<SimpleData name="持ち分"></SimpleData>
	</SchemaData></ExtendedData>
      <MultiGeometry><Polygon><outerBoundaryIs><LinearRing><coordinates>135.133091346133,34.0886539925213 135.133130384654,34.0886363357521 135.133126207319,34.0886124146798 135.133110222557,34.0885593977814 135.133096780243,34.0884982756768 135.133095694175,34.088418785624 135.133099018766,34.0883860370215 135.1331123075,34.0883633571336 135.133135171271,34.0883432060885 135.133157789614,34.0883322493191 135.133211415844,34.0883164805528 135.133248837632,34.0882937004366 135.133270252711,34.0882753422852 135.133278142091,34.0882486934438 135.133222314278,34.0882093607932 135.133194088991,34.0882005787168 135.133146929375,34.0881964053 135.133077169545,34.0882386204448 135.133202211911,34.0882467062421 135.133223247784,34.0882538598485 135.133227031452,34.0882664363936 135.13321503893,34.0882799564748 135.133191200886,34.0882925725537 135.13314165135,34.0883059899309 135.133114824819,34.0883215691051 135.133074203178,34.088353161985 135.13306172038,34.0883765057015 135.13305858524,34.0884289369076 135.133042643825,34.0884641569374 135.133058550867,34.0885141620535 135.133070108448,34.0885624505411 135.133066814833,34.0885889695135 135.133091346133,34.0886539925213</coordinates></LinearRing></outerBoundaryIs></Polygon></MultiGeometry>
  </Placemark>
  <Placemark>
	<Style><LineStyle><color>ff0000ff</color></LineStyle><PolyStyle><fill>0</fill></PolyStyle></Style>
	<ExtendedData><SchemaData schemaUrl="#c204_aridashi">
		<SimpleData name="市町村">有田市</SimpleData>
		<SimpleData name="大字">新堂</SimpleData>
		<SimpleData name="字">字瀧形谷</SimpleData>
		<SimpleData name="q_kyouyuushakanrenjouhou_tkigo"></SimpleData>
		<SimpleData name="地番">939-2</SimpleData>
		<SimpleData name="地目">畑</SimpleData>
		<SimpleData name="面積">0.0143</SimpleData>
		<SimpleData name="乙区分"></SimpleData>
		<SimpleData name="共有者数">0</SimpleData>
		<SimpleData name="登記年月日">2017/4/5</SimpleData>
		<SimpleData name="q_kyouyuushakanrenjouhou_keyno"></SimpleData>
		<SimpleData name="持ち分"></SimpleData>
	</SchemaData></ExtendedData>
      <MultiGeometry><Polygon><outerBoundaryIs><LinearRing><coordinates>135.13293554205,34.0884575048654 135.132944698035,34.088427799649 135.132998393771,34.088316996999 135.133011396874,34.0882808817167 135.133020318668,34.088272019134 135.133036259178,34.0882655862225 135.133074493206,34.0882396654124 135.133077169545,34.0882386204448 135.133023995674,34.0882429694559 135.132977345108,34.088261140465 135.132942799035,34.0882845718916 135.132869284965,34.0883251285804 135.13293707345,34.088444406849 135.13293554205,34.0884575048654</coordinates></LinearRing></outerBoundaryIs></Polygon></MultiGeometry>
  </Placemark>
  <Placemark>
	<Style><LineStyle><color>ff0000ff</color></LineStyle><PolyStyle><fill>0</fill></PolyStyle></Style>
	<ExtendedData><SchemaData schemaUrl="#c204_aridashi">
		<SimpleData name="市町村">有田市</SimpleData>
		<SimpleData name="大字">新堂</SimpleData>
		<SimpleData name="字">字瀧形谷</SimpleData>
		<SimpleData name="q_kyouyuushakanrenjouhou_tkigo"></SimpleData>
		<SimpleData name="地番">940-1</SimpleData>
		<SimpleData name="地目">畑</SimpleData>
		<SimpleData name="面積">0.0438</SimpleData>
		<SimpleData name="乙区分"></SimpleData>
		<SimpleData name="共有者数">0</SimpleData>
		<SimpleData name="登記年月日">2017/4/5</SimpleData>
		<SimpleData name="q_kyouyuushakanrenjouhou_keyno"></SimpleData>
		<SimpleData name="持ち分"></SimpleData>
	</SchemaData></ExtendedData>
      <MultiGeometry><Polygon><outerBoundaryIs><LinearRing><coordinates>135.132677063751,34.0883399008431 135.132655069849,34.0883289357558 135.132633904388,34.0883259914681 135.132640040552,34.0883512066148 135.13265511055,34.0883780715934 135.132661679251,34.0884448160937 135.132670584143,34.0885364333622 135.132686835146,34.0885261259392 135.132710284022,34.0885261832826 135.132796487232,34.0885175326544 135.132867706523,34.0885033217148 135.132916175924,34.0884672584108 135.132925574586,34.0884594540376 135.132926958602,34.0884469950957 135.132864029464,34.0883325655009 135.132747127407,34.0883476170056 135.132677063751,34.0883399008431</coordinates></LinearRing></outerBoundaryIs></Polygon></MultiGeometry>
  </Placemark>
  <Placemark>
	<Style><LineStyle><color>ff0000ff</color></LineStyle><PolyStyle><fill>0</fill></PolyStyle></Style>
	<ExtendedData><SchemaData schemaUrl="#c204_aridashi">
		<SimpleData name="市町村">有田市</SimpleData>
		<SimpleData name="大字">新堂</SimpleData>
		<SimpleData name="字">字瀧形谷</SimpleData>
		<SimpleData name="q_kyouyuushakanrenjouhou_tkigo"></SimpleData>
		<SimpleData name="地番">946</SimpleData>
		<SimpleData name="地目">畑</SimpleData>
		<SimpleData name="面積">0.1693</SimpleData>
		<SimpleData name="乙区分"></SimpleData>
		<SimpleData name="共有者数">0</SimpleData>
		<SimpleData name="登記年月日">2017/4/5</SimpleData>
		<SimpleData name="q_kyouyuushakanrenjouhou_keyno"></SimpleData>
		<SimpleData name="持ち分"></SimpleData>
	</SchemaData></ExtendedData>
      <MultiGeometry><Polygon><outerBoundaryIs><LinearRing><coordinates>135.133287510747,34.0884214011337 135.133335274531,34.0884237215256 135.133409055441,34.0884473582086 135.133467939145,34.0884633075766 135.133592814717,34.0885005666011 135.133657775597,34.0885050096255 135.133727167605,34.0885074102484 135.133785814767,34.0885040371559 135.133870440182,34.0884779292727 135.133920903004,34.0884642115061 135.133914405146,34.0884095666316 135.13390949416,34.088370412897 135.133909179683,34.0883385131391 135.13389852818,34.0883065495266 135.133880053533,34.0882607006816 135.133858758925,34.0881927615234 135.133843195264,34.0881462389854 135.133817272723,34.0880624356257 135.133802298448,34.0880261410396 135.133791674856,34.0880074036439 135.133697725907,34.0880382511052 135.133675751588,34.0880466340271 135.133655277862,34.0880576961732 135.133636655958,34.0880741898089 135.133615509561,34.0881204354761 135.133608921731,34.0881480401673 135.133620967833,34.0882568995146 135.133592093806,34.0883245570599 135.133433021048,34.0882743987986 135.13342652769,34.0882863438776 135.133411455562,34.0883011405171 135.133368239084,34.088349186873 135.133332012418,34.0883695322018 135.133318280038,34.088374078416 135.133281087676,34.0884019901035 135.133287510747,34.0884214011337</coordinates></LinearRing></outerBoundaryIs></Polygon></MultiGeometry>
  </Placemark>
  <Placemark>
	<Style><LineStyle><color>ff0000ff</color></LineStyle><PolyStyle><fill>0</fill></PolyStyle></Style>
	<ExtendedData><SchemaData schemaUrl="#c204_aridashi">
		<SimpleData name="市町村">有田市</SimpleData>
		<SimpleData name="大字">新堂</SimpleData>
		<SimpleData name="字">字石津谷</SimpleData>
		<SimpleData name="q_kyouyuushakanrenjouhou_tkigo"></SimpleData>
		<SimpleData name="地番">1009-5</SimpleData>
		<SimpleData name="地目">公衆用道路</SimpleData>
		<SimpleData name="面積">0.1218</SimpleData>
		<SimpleData name="乙区分"></SimpleData>
		<SimpleData name="共有者数">0</SimpleData>
		<SimpleData name="登記年月日">2017/4/5</SimpleData>
		<SimpleData name="q_kyouyuushakanrenjouhou_keyno"></SimpleData>
		<SimpleData name="持ち分"></SimpleData>
	</SchemaData></ExtendedData>
      <MultiGeometry><Polygon><outerBoundaryIs><LinearRing><coordinates>135.13279245281,34.0903552275604 135.132785325071,34.0903326560428 135.132783856773,34.0903151191682 135.132782679527,34.0902775424588 135.132780269195,34.0902503701725 135.132768352825,34.0902000686375 135.132753916265,34.0901429334458 135.132745560769,34.0901174952834 135.132732940064,34.0900948218771 135.132686396993,34.0900375321541 135.132640812545,34.0900095051113 135.13261060179,34.0899945331307 135.132565298549,34.0899676259917 135.132525386773,34.089946526949 135.132470334268,34.0899118515336 135.132362173697,34.0899004672477 135.132256266917,34.0898859162452 135.132223120958,34.0898750616425 135.132201529393,34.0898586177732 135.132192548631,34.0898445619797 135.132183980299,34.0898187616482 135.132161299902,34.0897178780987 135.132151279392,34.0896804102134 135.132142850792,34.0896430437291 135.132134593068,34.0896356556371 135.132130838617,34.0896085459679 135.132127271418,34.089575829859 135.132126518522,34.0895476685247 135.132129287924,34.0895279527311 135.132131939143,34.0894985802931 135.132127662867,34.0894705743833 135.13212261071,34.0894495772033 135.131972208436,34.089370492837 135.13195255064,34.0894013589237 135.131943570809,34.0894254395087 135.131931821713,34.0894734642438 135.13196319732,34.0895420248955 135.131966863717,34.0895660776269 135.131943124069,34.0896369445563 135.13193288743,34.0896928506775 135.131949223734,34.0897708256418 135.132010755298,34.0899043139976 135.132035307593,34.0899396306342 135.132115246655,34.0900363206963 135.132101961839,34.0900426370081 135.132100685759,34.0900593701381 135.132167472944,34.0900654767324 135.132172511792,34.0900591111825 135.132169708148,34.0900386437833 135.132163952795,34.0900196521393 135.132153011866,34.0899969815242 135.132129500068,34.0899627000503 135.132084093302,34.0899045436064 135.132066546201,34.0898867939625 135.132020363859,34.0898016480419 135.132010342,34.0897653792239 135.132005682859,34.0897228643534 135.132003254653,34.0896889752328 135.132008628467,34.089656160007 135.132019735431,34.0896158391483 135.132022433753,34.0895977817433 135.132023935095,34.0895717189602 135.132020651237,34.089547344368 135.132003141858,34.0895078581405 135.131990749695,34.0894819316069 135.131984099715,34.0894603551439 135.131986320057,34.0894434754184 135.131995118699,34.0894286526691 135.132009530015,34.0894191888327 135.132025705825,34.089420520232 135.132042073192,34.0894306883637 135.132054246318,34.0894494098046 135.132062314111,34.0894711585626 135.132070337323,34.0895556742745 135.132102081004,34.0897240953281 135.13213454421,34.0898475060893 135.132139841059,34.0898615178328 135.132162013067,34.0898964750341 135.132200681103,34.0899183858372 135.132252730567,34.0899330072885 135.132282507444,34.089953322599 135.132354379057,34.0899623951023 135.132417340922,34.0899706292961 135.13245538129,34.0899712224847 135.132469507604,34.0899748293406 135.132602699623,34.0900553332804 135.132659553445,34.0900982797303 135.13269404645,34.0901396348052 135.132703473827,34.0901725996272 135.132718972904,34.0902063015187 135.132724311783,34.0902470180215 135.132728331007,34.0902811257197 135.132729315619,34.0903227130537 135.132749304161,34.0903646058362 135.132760087672,34.0903836058997 135.13279245281,34.0903552275604</coordinates></LinearRing></outerBoundaryIs></Polygon></MultiGeometry>
  </Placemark>
  <Placemark>
	<Style><LineStyle><color>ff0000ff</color></LineStyle><PolyStyle><fill>0</fill></PolyStyle></Style>
	<ExtendedData><SchemaData schemaUrl="#c204_aridashi">
		<SimpleData name="市町村">有田市</SimpleData>
		<SimpleData name="大字">新堂</SimpleData>
		<SimpleData name="字">字石津谷</SimpleData>
		<SimpleData name="q_kyouyuushakanrenjouhou_tkigo"></SimpleData>
		<SimpleData name="地番">1013-1</SimpleData>
		<SimpleData name="地目">畑</SimpleData>
		<SimpleData name="面積">0.1298</SimpleData>
		<SimpleData name="乙区分"></SimpleData>
		<SimpleData name="共有者数">0</SimpleData>
		<SimpleData name="登記年月日">2017/4/5</SimpleData>
		<SimpleData name="q_kyouyuushakanrenjouhou_keyno"></SimpleData>
		<SimpleData name="持ち分"></SimpleData>
	</SchemaData></ExtendedData>
      <MultiGeometry><Polygon><outerBoundaryIs><LinearRing><coordinates>135.131606786618,34.0897600661623 135.131664709596,34.0897735843838 135.131762294977,34.0898506460067 135.131948970902,34.0899877504802 135.13198,34.0900148995917 135.132024694548,34.0900462203349 135.132063026988,34.0900542987351 135.132100685759,34.0900593701381 135.132101961839,34.0900426370081 135.132115246655,34.0900363206963 135.132035307593,34.0899396306342 135.132010755298,34.0899043139976 135.131949223734,34.0897708256418 135.13193288743,34.0896928506775 135.131943124069,34.0896369445563 135.131966863717,34.0895660776269 135.13196319732,34.0895420248955 135.131931821713,34.0894734642438 135.131927807353,34.0894643931378 135.131888272935,34.0894509508811 135.131849870157,34.0894434218884 135.131802148087,34.0894454557902 135.131748497256,34.0894550480053 135.13170329612,34.0894670169486 135.131765351279,34.0895788804776 135.131763321352,34.0896068238015 135.131733419462,34.0896794412628 135.131719008414,34.0896899328569 135.131621422673,34.089687214614 135.131611014294,34.0897100409094 135.131606786618,34.0897600661623</coordinates></LinearRing></outerBoundaryIs></Polygon></MultiGeometry>
  </Placemark>
  <Placemark>
	<Style><LineStyle><color>ff0000ff</color></LineStyle><PolyStyle><fill>0</fill></PolyStyle></Style>
	<ExtendedData><SchemaData schemaUrl="#c204_aridashi">
		<SimpleData name="市町村">有田市</SimpleData>
		<SimpleData name="大字">新堂</SimpleData>
		<SimpleData name="字">字石津谷</SimpleData>
		<SimpleData name="q_kyouyuushakanrenjouhou_tkigo"></SimpleData>
		<SimpleData name="地番">1014-2</SimpleData>
		<SimpleData name="地目">畑</SimpleData>
		<SimpleData name="面積">0.0209</SimpleData>
		<SimpleData name="乙区分"></SimpleData>
		<SimpleData name="共有者数">0</SimpleData>
		<SimpleData name="登記年月日">2017/4/5</SimpleData>
		<SimpleData name="q_kyouyuushakanrenjouhou_keyno"></SimpleData>
		<SimpleData name="持ち分"></SimpleData>
	</SchemaData></ExtendedData>
      <MultiGeometry><Polygon><outerBoundaryIs><LinearRing><coordinates>135.132005682859,34.0897228643534 135.132040066085,34.0897250276099 135.132069111117,34.0897246648134 135.132102081004,34.0897240953281 135.132070337323,34.0895556742745 135.132062314111,34.0894711585626 135.132054246318,34.0894494098046 135.132042073192,34.0894306883637 135.132025705825,34.089420520232 135.132009530015,34.0894191888327 135.131995118699,34.0894286526691 135.131986320057,34.0894434754184 135.131984099715,34.0894603551439 135.131990749695,34.0894819316069 135.132003141858,34.0895078581405 135.132020651237,34.089547344368 135.132023935095,34.0895717189602 135.132022433753,34.0895977817433 135.132019735431,34.0896158391483 135.132008628467,34.089656160007 135.132003254653,34.0896889752328 135.132005682859,34.0897228643534</coordinates></LinearRing></outerBoundaryIs></Polygon></MultiGeometry>
  </Placemark>
  <Placemark>
	<Style><LineStyle><color>ff0000ff</color></LineStyle><PolyStyle><fill>0</fill></PolyStyle></Style>
	<ExtendedData><SchemaData schemaUrl="#c204_aridashi">
		<SimpleData name="市町村">有田市</SimpleData>
		<SimpleData name="大字">新堂</SimpleData>
		<SimpleData name="字">字石津谷</SimpleData>
		<SimpleData name="q_kyouyuushakanrenjouhou_tkigo"></SimpleData>
		<SimpleData name="地番">1014-5</SimpleData>
		<SimpleData name="地目">畑</SimpleData>
		<SimpleData name="面積">0.009</SimpleData>
		<SimpleData name="乙区分"></SimpleData>
		<SimpleData name="共有者数">0</SimpleData>
		<SimpleData name="登記年月日">2017/4/5</SimpleData>
		<SimpleData name="q_kyouyuushakanrenjouhou_keyno"></SimpleData>
		<SimpleData name="持ち分"></SimpleData>
	</SchemaData></ExtendedData>
      <MultiGeometry><Polygon><outerBoundaryIs><LinearRing><coordinates>135.131693130291,34.0894448656649 135.131722626746,34.0894363649674 135.131838165772,34.0894159404844 135.131894425756,34.0894256873004 135.131915527991,34.0894295418555 135.131943570809,34.0894254395087 135.13195255064,34.0894013589237 135.131824742557,34.0893859315543 135.13181421985,34.0893806912022 135.131679926698,34.0894103323928 135.131693130291,34.0894448656649</coordinates></LinearRing></outerBoundaryIs></Polygon></MultiGeometry>
  </Placemark>
  <Placemark>
	<Style><LineStyle><color>ff0000ff</color></LineStyle><PolyStyle><fill>0</fill></PolyStyle></Style>
	<ExtendedData><SchemaData schemaUrl="#c204_aridashi">
		<SimpleData name="市町村">有田市</SimpleData>
		<SimpleData name="大字">新堂</SimpleData>
		<SimpleData name="字">字石津谷</SimpleData>
		<SimpleData name="q_kyouyuushakanrenjouhou_tkigo"></SimpleData>
		<SimpleData name="地番">1014-6</SimpleData>
		<SimpleData name="地目">公衆用道路</SimpleData>
		<SimpleData name="面積">0.0377</SimpleData>
		<SimpleData name="乙区分"></SimpleData>
		<SimpleData name="共有者数">5</SimpleData>
		<SimpleData name="登記年月日">2017/4/5</SimpleData>
		<SimpleData name="q_kyouyuushakanrenjouhou_keyno">2</SimpleData>
		<SimpleData name="持ち分">６分の１</SimpleData>
	</SchemaData></ExtendedData>
      <MultiGeometry><Polygon><outerBoundaryIs><LinearRing><coordinates>135.131943570809,34.0894254395087 135.131915527991,34.0894295418555 135.131894425756,34.0894256873004 135.131838165772,34.0894159404844 135.131722626746,34.0894363649674 135.131693130291,34.0894448656649 135.131667136155,34.089454211537 135.131630130105,34.0894712060217 135.131599417908,34.0894809693165 135.131565375372,34.0894825949376 135.13155562977,34.0894712924939 135.131522801735,34.0894728365311 135.131512541679,34.0894843221237 135.131492490666,34.0894878858316 135.131384044035,34.0894557715853 135.131294632107,34.0894251802525 135.131202777127,34.0893727986766 135.131174954476,34.0893320132681 135.13116293512,34.0893003823543 135.131151176329,34.0891318770044 135.131151516418,34.0890847994508 135.131155040745,34.0889806029405 135.131121575261,34.0889819800817 135.131115530662,34.089112241172 135.13112361453,34.0892023921804 135.131130854782,34.0893082966552 135.131151093696,34.089351038942 135.131164865154,34.0893808791084 135.131191603945,34.0894078989046 135.131227841806,34.0894289814139 135.131282167445,34.0894530497856 135.131397581297,34.089490514608 135.131447874607,34.0895062238968 135.131509294309,34.0895200554128 135.131545397383,34.0895172092227 135.131634109359,34.0894985697338 135.131659872389,34.0894853274552 135.13170329612,34.0894670169486 135.131748497256,34.0894550480053 135.131802148087,34.0894454557902 135.131849870157,34.0894434218884 135.131888272935,34.0894509508811 135.131927807353,34.0894643931378 135.131931821713,34.0894734642438 135.131943570809,34.0894254395087</coordinates></LinearRing></outerBoundaryIs></Polygon></MultiGeometry>
  </Placemark>
  <Placemark>
	<Style><LineStyle><color>ff0000ff</color></LineStyle><PolyStyle><fill>0</fill></PolyStyle></Style>
	<ExtendedData><SchemaData schemaUrl="#c204_aridashi">
		<SimpleData name="市町村">有田市</SimpleData>
		<SimpleData name="大字">新堂</SimpleData>
		<SimpleData name="字">字石津谷</SimpleData>
		<SimpleData name="q_kyouyuushakanrenjouhou_tkigo"></SimpleData>
		<SimpleData name="地番">1014-6</SimpleData>
		<SimpleData name="地目">公衆用道路</SimpleData>
		<SimpleData name="面積">0.0377</SimpleData>
		<SimpleData name="乙区分"></SimpleData>
		<SimpleData name="共有者数">5</SimpleData>
		<SimpleData name="登記年月日">2017/4/5</SimpleData>
		<SimpleData name="q_kyouyuushakanrenjouhou_keyno">1</SimpleData>
		<SimpleData name="持ち分">６分の１</SimpleData>
	</SchemaData></ExtendedData>
      <MultiGeometry><Polygon><outerBoundaryIs><LinearRing><coordinates>135.131943570809,34.0894254395087 135.131915527991,34.0894295418555 135.131894425756,34.0894256873004 135.131838165772,34.0894159404844 135.131722626746,34.0894363649674 135.131693130291,34.0894448656649 135.131667136155,34.089454211537 135.131630130105,34.0894712060217 135.131599417908,34.0894809693165 135.131565375372,34.0894825949376 135.13155562977,34.0894712924939 135.131522801735,34.0894728365311 135.131512541679,34.0894843221237 135.131492490666,34.0894878858316 135.131384044035,34.0894557715853 135.131294632107,34.0894251802525 135.131202777127,34.0893727986766 135.131174954476,34.0893320132681 135.13116293512,34.0893003823543 135.131151176329,34.0891318770044 135.131151516418,34.0890847994508 135.131155040745,34.0889806029405 135.131121575261,34.0889819800817 135.131115530662,34.089112241172 135.13112361453,34.0892023921804 135.131130854782,34.0893082966552 135.131151093696,34.089351038942 135.131164865154,34.0893808791084 135.131191603945,34.0894078989046 135.131227841806,34.0894289814139 135.131282167445,34.0894530497856 135.131397581297,34.089490514608 135.131447874607,34.0895062238968 135.131509294309,34.0895200554128 135.131545397383,34.0895172092227 135.131634109359,34.0894985697338 135.131659872389,34.0894853274552 135.13170329612,34.0894670169486 135.131748497256,34.0894550480053 135.131802148087,34.0894454557902 135.131849870157,34.0894434218884 135.131888272935,34.0894509508811 135.131927807353,34.0894643931378 135.131931821713,34.0894734642438 135.131943570809,34.0894254395087</coordinates></LinearRing></outerBoundaryIs></Polygon></MultiGeometry>
  </Placemark>
  <Placemark>
	<Style><LineStyle><color>ff0000ff</color></LineStyle><PolyStyle><fill>0</fill></PolyStyle></Style>
	<ExtendedData><SchemaData schemaUrl="#c204_aridashi">
		<SimpleData name="市町村">有田市</SimpleData>
		<SimpleData name="大字">新堂</SimpleData>
		<SimpleData name="字">字石津谷</SimpleData>
		<SimpleData name="q_kyouyuushakanrenjouhou_tkigo"></SimpleData>
		<SimpleData name="地番">1014-6</SimpleData>
		<SimpleData name="地目">公衆用道路</SimpleData>
		<SimpleData name="面積">0.0377</SimpleData>
		<SimpleData name="乙区分"></SimpleData>
		<SimpleData name="共有者数">5</SimpleData>
		<SimpleData name="登記年月日">2017/4/5</SimpleData>
		<SimpleData name="q_kyouyuushakanrenjouhou_keyno">6</SimpleData>
		<SimpleData name="持ち分">６分の１</SimpleData>
	</SchemaData></ExtendedData>
      <MultiGeometry><Polygon><outerBoundaryIs><LinearRing><coordinates>135.131943570809,34.0894254395087 135.131915527991,34.0894295418555 135.131894425756,34.0894256873004 135.131838165772,34.0894159404844 135.131722626746,34.0894363649674 135.131693130291,34.0894448656649 135.131667136155,34.089454211537 135.131630130105,34.0894712060217 135.131599417908,34.0894809693165 135.131565375372,34.0894825949376 135.13155562977,34.0894712924939 135.131522801735,34.0894728365311 135.131512541679,34.0894843221237 135.131492490666,34.0894878858316 135.131384044035,34.0894557715853 135.131294632107,34.0894251802525 135.131202777127,34.0893727986766 135.131174954476,34.0893320132681 135.13116293512,34.0893003823543 135.131151176329,34.0891318770044 135.131151516418,34.0890847994508 135.131155040745,34.0889806029405 135.131121575261,34.0889819800817 135.131115530662,34.089112241172 135.13112361453,34.0892023921804 135.131130854782,34.0893082966552 135.131151093696,34.089351038942 135.131164865154,34.0893808791084 135.131191603945,34.0894078989046 135.131227841806,34.0894289814139 135.131282167445,34.0894530497856 135.131397581297,34.089490514608 135.131447874607,34.0895062238968 135.131509294309,34.0895200554128 135.131545397383,34.0895172092227 135.131634109359,34.0894985697338 135.131659872389,34.0894853274552 135.13170329612,34.0894670169486 135.131748497256,34.0894550480053 135.131802148087,34.0894454557902 135.131849870157,34.0894434218884 135.131888272935,34.0894509508811 135.131927807353,34.0894643931378 135.131931821713,34.0894734642438 135.131943570809,34.0894254395087</coordinates></LinearRing></outerBoundaryIs></Polygon></MultiGeometry>
  </Placemark>
  <Placemark>
	<Style><LineStyle><color>ff0000ff</color></LineStyle><PolyStyle><fill>0</fill></PolyStyle></Style>
	<ExtendedData><SchemaData schemaUrl="#c204_aridashi">
		<SimpleData name="市町村">有田市</SimpleData>
		<SimpleData name="大字">新堂</SimpleData>
		<SimpleData name="字">字石津谷</SimpleData>
		<SimpleData name="q_kyouyuushakanrenjouhou_tkigo"></SimpleData>
		<SimpleData name="地番">1014-6</SimpleData>
		<SimpleData name="地目">公衆用道路</SimpleData>
		<SimpleData name="面積">0.0377</SimpleData>
		<SimpleData name="乙区分"></SimpleData>
		<SimpleData name="共有者数">5</SimpleData>
		<SimpleData name="登記年月日">2017/4/5</SimpleData>
		<SimpleData name="q_kyouyuushakanrenjouhou_keyno">4</SimpleData>
		<SimpleData name="持ち分">６分の１</SimpleData>
	</SchemaData></ExtendedData>
      <MultiGeometry><Polygon><outerBoundaryIs><LinearRing><coordinates>135.131943570809,34.0894254395087 135.131915527991,34.0894295418555 135.131894425756,34.0894256873004 135.131838165772,34.0894159404844 135.131722626746,34.0894363649674 135.131693130291,34.0894448656649 135.131667136155,34.089454211537 135.131630130105,34.0894712060217 135.131599417908,34.0894809693165 135.131565375372,34.0894825949376 135.13155562977,34.0894712924939 135.131522801735,34.0894728365311 135.131512541679,34.0894843221237 135.131492490666,34.0894878858316 135.131384044035,34.0894557715853 135.131294632107,34.0894251802525 135.131202777127,34.0893727986766 135.131174954476,34.0893320132681 135.13116293512,34.0893003823543 135.131151176329,34.0891318770044 135.131151516418,34.0890847994508 135.131155040745,34.0889806029405 135.131121575261,34.0889819800817 135.131115530662,34.089112241172 135.13112361453,34.0892023921804 135.131130854782,34.0893082966552 135.131151093696,34.089351038942 135.131164865154,34.0893808791084 135.131191603945,34.0894078989046 135.131227841806,34.0894289814139 135.131282167445,34.0894530497856 135.131397581297,34.089490514608 135.131447874607,34.0895062238968 135.131509294309,34.0895200554128 135.131545397383,34.0895172092227 135.131634109359,34.0894985697338 135.131659872389,34.0894853274552 135.13170329612,34.0894670169486 135.131748497256,34.0894550480053 135.131802148087,34.0894454557902 135.131849870157,34.0894434218884 135.131888272935,34.0894509508811 135.131927807353,34.0894643931378 135.131931821713,34.0894734642438 135.131943570809,34.0894254395087</coordinates></LinearRing></outerBoundaryIs></Polygon></MultiGeometry>
  </Placemark>
  <Placemark>
	<Style><LineStyle><color>ff0000ff</color></LineStyle><PolyStyle><fill>0</fill></PolyStyle></Style>
	<ExtendedData><SchemaData schemaUrl="#c204_aridashi">
		<SimpleData name="市町村">有田市</SimpleData>
		<SimpleData name="大字">新堂</SimpleData>
		<SimpleData name="字">字石津谷</SimpleData>
		<SimpleData name="q_kyouyuushakanrenjouhou_tkigo"></SimpleData>
		<SimpleData name="地番">1014-6</SimpleData>
		<SimpleData name="地目">公衆用道路</SimpleData>
		<SimpleData name="面積">0.0377</SimpleData>
		<SimpleData name="乙区分"></SimpleData>
		<SimpleData name="共有者数">5</SimpleData>
		<SimpleData name="登記年月日">2017/4/5</SimpleData>
		<SimpleData name="q_kyouyuushakanrenjouhou_keyno">3</SimpleData>
		<SimpleData name="持ち分">６分の１</SimpleData>
	</SchemaData></ExtendedData>
      <MultiGeometry><Polygon><outerBoundaryIs><LinearRing><coordinates>135.131943570809,34.0894254395087 135.131915527991,34.0894295418555 135.131894425756,34.0894256873004 135.131838165772,34.0894159404844 135.131722626746,34.0894363649674 135.131693130291,34.0894448656649 135.131667136155,34.089454211537 135.131630130105,34.0894712060217 135.131599417908,34.0894809693165 135.131565375372,34.0894825949376 135.13155562977,34.0894712924939 135.131522801735,34.0894728365311 135.131512541679,34.0894843221237 135.131492490666,34.0894878858316 135.131384044035,34.0894557715853 135.131294632107,34.0894251802525 135.131202777127,34.0893727986766 135.131174954476,34.0893320132681 135.13116293512,34.0893003823543 135.131151176329,34.0891318770044 135.131151516418,34.0890847994508 135.131155040745,34.0889806029405 135.131121575261,34.0889819800817 135.131115530662,34.089112241172 135.13112361453,34.0892023921804 135.131130854782,34.0893082966552 135.131151093696,34.089351038942 135.131164865154,34.0893808791084 135.131191603945,34.0894078989046 135.131227841806,34.0894289814139 135.131282167445,34.0894530497856 135.131397581297,34.089490514608 135.131447874607,34.0895062238968 135.131509294309,34.0895200554128 135.131545397383,34.0895172092227 135.131634109359,34.0894985697338 135.131659872389,34.0894853274552 135.13170329612,34.0894670169486 135.131748497256,34.0894550480053 135.131802148087,34.0894454557902 135.131849870157,34.0894434218884 135.131888272935,34.0894509508811 135.131927807353,34.0894643931378 135.131931821713,34.0894734642438 135.131943570809,34.0894254395087</coordinates></LinearRing></outerBoundaryIs></Polygon></MultiGeometry>
  </Placemark>
  <Placemark>
	<Style><LineStyle><color>ff0000ff</color></LineStyle><PolyStyle><fill>0</fill></PolyStyle></Style>
	<ExtendedData><SchemaData schemaUrl="#c204_aridashi">
		<SimpleData name="市町村">有田市</SimpleData>
		<SimpleData name="大字">新堂</SimpleData>
		<SimpleData name="字">字石津谷</SimpleData>
		<SimpleData name="q_kyouyuushakanrenjouhou_tkigo"></SimpleData>
		<SimpleData name="地番">1014-6</SimpleData>
		<SimpleData name="地目">公衆用道路</SimpleData>
		<SimpleData name="面積">0.0377</SimpleData>
		<SimpleData name="乙区分"></SimpleData>
		<SimpleData name="共有者数">5</SimpleData>
		<SimpleData name="登記年月日">2017/4/5</SimpleData>
		<SimpleData name="q_kyouyuushakanrenjouhou_keyno">5</SimpleData>
		<SimpleData name="持ち分">６分の１</SimpleData>
	</SchemaData></ExtendedData>
      <MultiGeometry><Polygon><outerBoundaryIs><LinearRing><coordinates>135.131943570809,34.0894254395087 135.131915527991,34.0894295418555 135.131894425756,34.0894256873004 135.131838165772,34.0894159404844 135.131722626746,34.0894363649674 135.131693130291,34.0894448656649 135.131667136155,34.089454211537 135.131630130105,34.0894712060217 135.131599417908,34.0894809693165 135.131565375372,34.0894825949376 135.13155562977,34.0894712924939 135.131522801735,34.0894728365311 135.131512541679,34.0894843221237 135.131492490666,34.0894878858316 135.131384044035,34.0894557715853 135.131294632107,34.0894251802525 135.131202777127,34.0893727986766 135.131174954476,34.0893320132681 135.13116293512,34.0893003823543 135.131151176329,34.0891318770044 135.131151516418,34.0890847994508 135.131155040745,34.0889806029405 135.131121575261,34.0889819800817 135.131115530662,34.089112241172 135.13112361453,34.0892023921804 135.131130854782,34.0893082966552 135.131151093696,34.089351038942 135.131164865154,34.0893808791084 135.131191603945,34.0894078989046 135.131227841806,34.0894289814139 135.131282167445,34.0894530497856 135.131397581297,34.089490514608 135.131447874607,34.0895062238968 135.131509294309,34.0895200554128 135.131545397383,34.0895172092227 135.131634109359,34.0894985697338 135.131659872389,34.0894853274552 135.13170329612,34.0894670169486 135.131748497256,34.0894550480053 135.131802148087,34.0894454557902 135.131849870157,34.0894434218884 135.131888272935,34.0894509508811 135.131927807353,34.0894643931378 135.131931821713,34.0894734642438 135.131943570809,34.0894254395087</coordinates></LinearRing></outerBoundaryIs></Polygon></MultiGeometry>
  </Placemark>
  <Placemark>
	<Style><LineStyle><color>ff0000ff</color></LineStyle><PolyStyle><fill>0</fill></PolyStyle></Style>
	<ExtendedData><SchemaData schemaUrl="#c204_aridashi">
		<SimpleData name="市町村">有田市</SimpleData>
		<SimpleData name="大字">新堂</SimpleData>
		<SimpleData name="字">字石津谷</SimpleData>
		<SimpleData name="q_kyouyuushakanrenjouhou_tkigo"></SimpleData>
		<SimpleData name="地番">1015</SimpleData>
		<SimpleData name="地目">畑</SimpleData>
		<SimpleData name="面積">0.0451</SimpleData>
		<SimpleData name="乙区分"></SimpleData>
		<SimpleData name="共有者数">0</SimpleData>
		<SimpleData name="登記年月日">2017/4/5</SimpleData>
		<SimpleData name="q_kyouyuushakanrenjouhou_keyno"></SimpleData>
		<SimpleData name="持ち分"></SimpleData>
	</SchemaData></ExtendedData>
      <MultiGeometry><Polygon><outerBoundaryIs><LinearRing><coordinates>135.131540392809,34.0897547283799 135.131606786618,34.0897600661623 135.131611014294,34.0897100409094 135.131621422673,34.089687214614 135.131719008414,34.0896899328569 135.131733419462,34.0896794412628 135.131763321352,34.0896068238015 135.131765351279,34.0895788804776 135.13170329612,34.0894670169486 135.131659872389,34.0894853274552 135.131634109359,34.0894985697338 135.131545397383,34.0895172092227 135.131540392809,34.0897547283799</coordinates></LinearRing></outerBoundaryIs></Polygon></MultiGeometry>
  </Placemark>
  <Placemark>
	<Style><LineStyle><color>ff0000ff</color></LineStyle><PolyStyle><fill>0</fill></PolyStyle></Style>
	<ExtendedData><SchemaData schemaUrl="#c204_aridashi">
		<SimpleData name="市町村">有田市</SimpleData>
		<SimpleData name="大字">新堂</SimpleData>
		<SimpleData name="字">字石津谷</SimpleData>
		<SimpleData name="q_kyouyuushakanrenjouhou_tkigo"></SimpleData>
		<SimpleData name="地番">1016-2</SimpleData>
		<SimpleData name="地目">畑</SimpleData>
		<SimpleData name="面積">0.1871</SimpleData>
		<SimpleData name="乙区分"></SimpleData>
		<SimpleData name="共有者数">0</SimpleData>
		<SimpleData name="登記年月日">2017/4/5</SimpleData>
		<SimpleData name="q_kyouyuushakanrenjouhou_keyno"></SimpleData>
		<SimpleData name="持ち分"></SimpleData>
	</SchemaData></ExtendedData>
      <MultiGeometry><Polygon><outerBoundaryIs><LinearRing><coordinates>135.13195255064,34.0894013589237 135.131972208436,34.089370492837 135.131769022236,34.089255396237 135.131702169255,34.0892027319158 135.13168078632,34.0891860460063 135.131525928998,34.0890360842776 135.131421092038,34.0889572221554 135.131381251094,34.0889589690167 135.131298372443,34.0889698960769 135.131307013824,34.0890267019626 135.131278437312,34.0890851830642 135.131285164034,34.0891671201853 135.131329050149,34.0893348068633 135.131390419048,34.0893939148975 135.131425270776,34.0894138515715 135.131528083664,34.089452218912 135.131522801735,34.0894728365311 135.13155562977,34.0894712924939 135.131565375372,34.0894825949376 135.131599417908,34.0894809693165 135.131630130105,34.0894712060217 135.131667136155,34.089454211537 135.131693130291,34.0894448656649 135.131679926698,34.0894103323928 135.13181421985,34.0893806912022 135.131824742557,34.0893859315543 135.13195255064,34.0894013589237</coordinates></LinearRing></outerBoundaryIs></Polygon></MultiGeometry>
  </Placemark>
</Folder>
</Document></kml>
